{"fetched_at":"2026-07-21T17:52:58.834Z","source":"https://celestrak.org/NORAD/elements/gp.php?GROUP=globalstar&FORMAT=JSON","constellation":"globalstar","records":[{"OBJECT_NAME":"GLOBALSTAR M080","OBJECT_ID":"2011-080B","EPOCH":"2026-07-20T22:00:55.859616","CLASSIFICATION_TYPE":"U","MEAN_MOTION":12.62257617,"ECCENTRICITY":0.00002972,"INCLINATION":52.0059,"RA_OF_ASC_NODE":276.3288,"ARG_OF_PERICENTER":69.7557,"MEAN_ANOMALY":102.241,"EPHEMERIS_TYPE":0,"NORAD_CAT_ID":38041,"ELEMENT_SET_NO":999,"REV_AT_EPOCH":67314,"BSTAR":0.000043088275,"MEAN_MOTION_DOT":-9.6e-7,"MEAN_MOTION_DDOT":0},{"OBJECT_NAME":"GLOBALSTAR M082","OBJECT_ID":"2011-080C","EPOCH":"2026-07-20T08:14:25.638720","CLASSIFICATION_TYPE":"U","MEAN_MOTION":12.62264361,"ECCENTRICITY":0.00001918,"INCLINATION":52.0052,"RA_OF_ASC_NODE":233.5791,"ARG_OF_PERICENTER":59.3982,"MEAN_ANOMALY":313.2431,"EPHEMERIS_TYPE":0,"NORAD_CAT_ID":38042,"ELEMENT_SET_NO":999,"REV_AT_EPOCH":67378,"BSTAR":0.000032460742,"MEAN_MOTION_DOT":-9.8e-7,"MEAN_MOTION_DDOT":0},{"OBJECT_NAME":"GLOBALSTAR M092","OBJECT_ID":"2011-080D","EPOCH":"2026-07-21T06:24:34.795296","CLASSIFICATION_TYPE":"U","MEAN_MOTION":12.62267942,"ECCENTRICITY":0.00007265,"INCLINATION":52.0106,"RA_OF_ASC_NODE":321.1655,"ARG_OF_PERICENTER":112.4751,"MEAN_ANOMALY":259.1482,"EPHEMERIS_TYPE":0,"NORAD_CAT_ID":38043,"ELEMENT_SET_NO":999,"REV_AT_EPOCH":67235,"BSTAR":0.000099912583,"MEAN_MOTION_DOT":-8.6e-7,"MEAN_MOTION_DDOT":0},{"OBJECT_NAME":"GLOBALSTAR M090","OBJECT_ID":"2011-080E","EPOCH":"2026-07-21T02:05:38.381856","CLASSIFICATION_TYPE":"U","MEAN_MOTION":12.6226964,"ECCENTRICITY":0.00003897,"INCLINATION":52.0095,"RA_OF_ASC_NODE":225.281,"ARG_OF_PERICENTER":81.6298,"MEAN_ANOMALY":311.9227,"EPHEMERIS_TYPE":0,"NORAD_CAT_ID":38044,"ELEMENT_SET_NO":999,"REV_AT_EPOCH":67399,"BSTAR":0.00004474384,"MEAN_MOTION_DOT":-9.6e-7,"MEAN_MOTION_DDOT":0},{"OBJECT_NAME":"GLOBALSTAR M086","OBJECT_ID":"2011-080F","EPOCH":"2026-07-20T12:05:10.422240","CLASSIFICATION_TYPE":"U","MEAN_MOTION":12.6228786,"ECCENTRICITY":0.00014199,"INCLINATION":51.9871,"RA_OF_ASC_NODE":226.9319,"ARG_OF_PERICENTER":119.1904,"MEAN_ANOMALY":44.917,"EPHEMERIS_TYPE":0,"NORAD_CAT_ID":38045,"ELEMENT_SET_NO":999,"REV_AT_EPOCH":67386,"BSTAR":-0.000007123301,"MEAN_MOTION_DOT":-0.00000105,"MEAN_MOTION_DDOT":0},{"OBJECT_NAME":"GLOBALSTAR M097","OBJECT_ID":"2013-005A","EPOCH":"2026-07-21T03:11:16.448064","CLASSIFICATION_TYPE":"U","MEAN_MOTION":12.62271304,"ECCENTRICITY":0.00005491,"INCLINATION":52.004,"RA_OF_ASC_NODE":140.0015,"ARG_OF_PERICENTER":45.3552,"MEAN_ANOMALY":314.7359,"EPHEMERIS_TYPE":0,"NORAD_CAT_ID":39072,"ELEMENT_SET_NO":999,"REV_AT_EPOCH":62119,"BSTAR":-0.000071785515,"MEAN_MOTION_DOT":-0.00000117,"MEAN_MOTION_DDOT":0},{"OBJECT_NAME":"GLOBALSTAR M093","OBJECT_ID":"2013-005B","EPOCH":"2026-07-21T04:26:47.544864","CLASSIFICATION_TYPE":"U","MEAN_MOTION":12.62266403,"ECCENTRICITY":0.00007867,"INCLINATION":52.0099,"RA_OF_ASC_NODE":133.202,"ARG_OF_PERICENTER":52.807,"MEAN_ANOMALY":307.2868,"EPHEMERIS_TYPE":0,"NORAD_CAT_ID":39073,"ELEMENT_SET_NO":999,"REV_AT_EPOCH":62115,"BSTAR":0.000087812017,"MEAN_MOTION_DOT":-8.8e-7,"MEAN_MOTION_DDOT":0},{"OBJECT_NAME":"GLOBALSTAR M094","OBJECT_ID":"2013-005C","EPOCH":"2026-07-21T06:20:37.040640","CLASSIFICATION_TYPE":"U","MEAN_MOTION":12.6226428,"ECCENTRICITY":0.00010402,"INCLINATION":51.997,"RA_OF_ASC_NODE":47.0444,"ARG_OF_PERICENTER":73.2447,"MEAN_ANOMALY":286.8533,"EPHEMERIS_TYPE":0,"NORAD_CAT_ID":39074,"ELEMENT_SET_NO":999,"REV_AT_EPOCH":62277,"BSTAR":-0.000002750154,"MEAN_MOTION_DOT":-0.00000104,"MEAN_MOTION_DDOT":0},{"OBJECT_NAME":"GLOBALSTAR M096","OBJECT_ID":"2013-005D","EPOCH":"2026-07-20T23:03:59.379552","CLASSIFICATION_TYPE":"U","MEAN_MOTION":12.62265888,"ECCENTRICITY":0.00008383,"INCLINATION":52.0076,"RA_OF_ASC_NODE":96.796,"ARG_OF_PERICENTER":52.9453,"MEAN_ANOMALY":307.1491,"EPHEMERIS_TYPE":0,"NORAD_CAT_ID":39075,"ELEMENT_SET_NO":999,"REV_AT_EPOCH":62165,"BSTAR":0.000086627167,"MEAN_MOTION_DOT":-8.8e-7,"MEAN_MOTION_DDOT":0},{"OBJECT_NAME":"GLOBALSTAR M078","OBJECT_ID":"2013-005E","EPOCH":"2026-07-21T02:13:22.342080","CLASSIFICATION_TYPE":"U","MEAN_MOTION":12.62260097,"ECCENTRICITY":0.00009703,"INCLINATION":51.9848,"RA_OF_ASC_NODE":180.3587,"ARG_OF_PERICENTER":354.3095,"MEAN_ANOMALY":5.776,"EPHEMERIS_TYPE":0,"NORAD_CAT_ID":39076,"ELEMENT_SET_NO":999,"REV_AT_EPOCH":62029,"BSTAR":0.000019133926,"MEAN_MOTION_DOT":-0.000001,"MEAN_MOTION_DDOT":0},{"OBJECT_NAME":"GLOBALSTAR M095","OBJECT_ID":"2013-005F","EPOCH":"2026-07-21T02:51:46.354464","CLASSIFICATION_TYPE":"U","MEAN_MOTION":12.62264122,"ECCENTRICITY":0.00005938,"INCLINATION":52.0055,"RA_OF_ASC_NODE":177.9288,"ARG_OF_PERICENTER":23.2482,"MEAN_ANOMALY":336.8412,"EPHEMERIS_TYPE":0,"NORAD_CAT_ID":39077,"ELEMENT_SET_NO":999,"REV_AT_EPOCH":62015,"BSTAR":0.000051808531,"MEAN_MOTION_DOT":-9.4e-7,"MEAN_MOTION_DDOT":0},{"OBJECT_NAME":"GLOBALSTAR M087","OBJECT_ID":"2022-064A","EPOCH":"2026-07-21T06:58:39.952416","CLASSIFICATION_TYPE":"U","MEAN_MOTION":12.6226948,"ECCENTRICITY":0.00008897,"INCLINATION":52.0016,"RA_OF_ASC_NODE":318.6272,"ARG_OF_PERICENTER":92.1323,"MEAN_ANOMALY":267.9645,"EPHEMERIS_TYPE":0,"NORAD_CAT_ID":52888,"ELEMENT_SET_NO":999,"REV_AT_EPOCH":19544,"BSTAR":0.000097117779,"MEAN_MOTION_DOT":-8.6e-7,"MEAN_MOTION_DDOT":0}]}
